{
  "type": "FeatureCollection",
  "features": [
    {
      "type": "Feature",
      "properties": {
        "norad_id": 40889,
        "name": "GSAT0205 (GALILEO 9)",
        "group": "galileo",
        "lat": 5.782043272320165,
        "lon": -128.90253754342086,
        "alt_km": 23207.037043527696,
        "timestamp": "2025-12-02T17:49:12.290771+00:00",
        "meta_object_name": "GSAT0205 (GALILEO 9)",
        "meta_object_id": "2015-045A",
        "meta_epoch": "2025-12-02T03:27:57.507840",
        "meta_mean_motion": 1.70472886,
        "meta_eccentricity": 0.0005835,
        "meta_inclination": 55.0073,
        "meta_ra_of_asc_node": 227.0512,
        "meta_arg_of_pericenter": 38.3993,
        "meta_mean_anomaly": 321.7247,
        "meta_ephemeris_type": 0,
        "meta_classification_type": "U",
        "meta_norad_cat_id": 40889,
        "meta_element_set_no": 999,
        "meta_rev_at_epoch": 6365,
        "meta_bstar": 0,
        "meta_mean_motion_dot": 3.5e-07,
        "meta_mean_motion_ddot": 0,
        "tle_line1": "1 40889U 15045A   25336.14441560  .00000035  00000+0  00000+0 0  9994",
        "tle_line2": "2 40889  55.0073 227.0512 0005835  38.3993 321.7247  1.70472886 63655"
      },
      "geometry": {
        "type": "Point",
        "coordinates": [
          -128.90253754342086,
          5.782043272320165
        ]
      }
    },
    {
      "type": "Feature",
      "properties": {
        "norad_id": 40890,
        "name": "GSAT0206 (GALILEO 10)",
        "group": "galileo",
        "lat": -40.0170402267187,
        "lon": 82.99495675178588,
        "alt_km": 23236.548527133506,
        "timestamp": "2025-12-02T17:49:12.290782+00:00",
        "meta_object_name": "GSAT0206 (GALILEO 10)",
        "meta_object_id": "2015-045B",
        "meta_epoch": "2025-12-01T18:40:58.746144",
        "meta_mean_motion": 1.70473031,
        "meta_eccentricity": 0.0003438,
        "meta_inclination": 55.0064,
        "meta_ra_of_asc_node": 227.0564,
        "meta_arg_of_pericenter": 30.2471,
        "meta_mean_anomaly": 329.8532,
        "meta_ephemeris_type": 0,
        "meta_classification_type": "U",
        "meta_norad_cat_id": 40890,
        "meta_element_set_no": 999,
        "meta_rev_at_epoch": 6367,
        "meta_bstar": 0,
        "meta_mean_motion_dot": 3.4e-07,
        "meta_mean_motion_ddot": 0,
        "tle_line1": "1 40890U 15045B   25335.77845771  .00000034  00000+0  00000+0 0  9995",
        "tle_line2": "2 40890  55.0064 227.0564 0003438  30.2471 329.8532  1.70473031 63674"
      },
      "geometry": {
        "type": "Point",
        "coordinates": [
          82.99495675178588,
          -40.0170402267187
        ]
      }
    },
    {
      "type": "Feature",
      "properties": {
        "norad_id": 41174,
        "name": "GSAT0209 (GALILEO 12)",
        "group": "galileo",
        "lat": 40.28167569333298,
        "lon": -108.68201297107511,
        "alt_km": 23221.867428212816,
        "timestamp": "2025-12-02T17:49:12.290793+00:00",
        "meta_object_name": "GSAT0209 (GALILEO 12)",
        "meta_object_id": "2015-079A",
        "meta_epoch": "2025-12-01T22:43:10.411392",
        "meta_mean_motion": 1.70474306,
        "meta_eccentricity": 0.0002352,
        "meta_inclination": 55.7062,
        "meta_ra_of_asc_node": 106.6773,
        "meta_arg_of_pericenter": 357.4206,
        "meta_mean_anomaly": 2.5431,
        "meta_ephemeris_type": 0,
        "meta_classification_type": "U",
        "meta_norad_cat_id": 41174,
        "meta_element_set_no": 999,
        "meta_rev_at_epoch": 6141,
        "meta_bstar": 0,
        "meta_mean_motion_dot": 3.5e-07,
        "meta_mean_motion_ddot": 0,
        "tle_line1": "1 41174U 15079A   25335.94664828  .00000035  00000+0  00000+0 0  9990",
        "tle_line2": "2 41174  55.7062 106.6773 0002352 357.4206   2.5431  1.70474306 61412"
      },
      "geometry": {
        "type": "Point",
        "coordinates": [
          -108.68201297107511,
          40.28167569333298
        ]
      }
    },
    {
      "type": "Feature",
      "properties": {
        "norad_id": 41175,
        "name": "GSAT0208 (GALILEO 11)",
        "group": "galileo",
        "lat": -5.51184845503491,
        "lon": 102.85747152936253,
        "alt_km": 23217.84608136376,
        "timestamp": "2025-12-02T17:49:12.290804+00:00",
        "meta_object_name": "GSAT0208 (GALILEO 11)",
        "meta_object_id": "2015-079B",
        "meta_epoch": "2025-11-30T09:46:10.644960",
        "meta_mean_motion": 1.70474193,
        "meta_eccentricity": 0.00018872,
        "meta_inclination": 55.7038,
        "meta_ra_of_asc_node": 106.7167,
        "meta_arg_of_pericenter": 11.7228,
        "meta_mean_anomaly": 348.2564,
        "meta_ephemeris_type": 0,
        "meta_classification_type": "U",
        "meta_norad_cat_id": 41175,
        "meta_element_set_no": 999,
        "meta_rev_at_epoch": 6180,
        "meta_bstar": 0,
        "meta_mean_motion_dot": 4.8e-07,
        "meta_mean_motion_ddot": 0,
        "tle_line1": "1 41175U 15079B   25334.40706765  .00000048  00000+0  00000+0 0  9992",
        "tle_line2": "2 41175  55.7038 106.7167 0001887  11.7228 348.2564  1.70474193 61804"
      },
      "geometry": {
        "type": "Point",
        "coordinates": [
          102.85747152936253,
          -5.51184845503491
        ]
      }
    },
    {
      "type": "Feature",
      "properties": {
        "norad_id": 41549,
        "name": "GSAT0211 (GALILEO 14)",
        "group": "galileo",
        "lat": -54.53588997239941,
        "lon": 149.55964990976992,
        "alt_km": 23228.85643227903,
        "timestamp": "2025-12-02T17:49:12.290815+00:00",
        "meta_object_name": "GSAT0211 (GALILEO 14)",
        "meta_object_id": "2016-030A",
        "meta_epoch": "2025-12-01T16:54:04.942368",
        "meta_mean_motion": 1.70472896,
        "meta_eccentricity": 0.00038995,
        "meta_inclination": 55.1563,
        "meta_ra_of_asc_node": 227.1275,
        "meta_arg_of_pericenter": 10.5053,
        "meta_mean_anomaly": 349.5828,
        "meta_ephemeris_type": 0,
        "meta_classification_type": "U",
        "meta_norad_cat_id": 41549,
        "meta_element_set_no": 999,
        "meta_rev_at_epoch": 5930,
        "meta_bstar": 0,
        "meta_mean_motion_dot": 3.3e-07,
        "meta_mean_motion_ddot": 0,
        "tle_line1": "1 41549U 16030A   25335.70422387  .00000033  00000+0  00000+0 0  9998",
        "tle_line2": "2 41549  55.1563 227.1275 0003899  10.5053 349.5828  1.70472896 59309"
      },
      "geometry": {
        "type": "Point",
        "coordinates": [
          149.55964990976992,
          -54.53588997239941
        ]
      }
    },
    {
      "type": "Feature",
      "properties": {
        "norad_id": 41550,
        "name": "GSAT0210 (GALILEO 13)",
        "group": "galileo",
        "lat": 45.7607705565037,
        "lon": 1.511406440014696,
        "alt_km": 23218.70555997539,
        "timestamp": "2025-12-02T17:49:12.290826+00:00",
        "meta_object_name": "GSAT0210 (GALILEO 13)",
        "meta_object_id": "2016-030B",
        "meta_epoch": "2025-12-01T09:00:06.320160",
        "meta_mean_motion": 1.70473417,
        "meta_eccentricity": 0.00012162,
        "meta_inclination": 55.1557,
        "meta_ra_of_asc_node": 227.1346,
        "meta_arg_of_pericenter": 241.6156,
        "meta_mean_anomaly": 118.4503,
        "meta_ephemeris_type": 0,
        "meta_classification_type": "U",
        "meta_norad_cat_id": 41550,
        "meta_element_set_no": 999,
        "meta_rev_at_epoch": 5929,
        "meta_bstar": 0,
        "meta_mean_motion_dot": 3.2e-07,
        "meta_mean_motion_ddot": 0,
        "tle_line1": "1 41550U 16030B   25335.37507315  .00000032  00000+0  00000+0 0  9997",
        "tle_line2": "2 41550  55.1557 227.1346 0001216 241.6156 118.4503  1.70473417 59296"
      },
      "geometry": {
        "type": "Point",
        "coordinates": [
          1.511406440014696,
          45.7607705565037
        ]
      }
    },
    {
      "type": "Feature",
      "properties": {
        "norad_id": 41859,
        "name": "GSAT0207 (GALILEO 15)",
        "group": "galileo",
        "lat": -40.14837400265661,
        "lon": 70.87768941145129,
        "alt_km": 23221.112039437616,
        "timestamp": "2025-12-02T17:49:12.290858+00:00",
        "meta_object_name": "GSAT0207 (GALILEO 15)",
        "meta_object_id": "2016-069A",
        "meta_epoch": "2025-11-30T11:31:32.297952",
        "meta_mean_motion": 1.70474248,
        "meta_eccentricity": 0.00020596,
        "meta_inclination": 55.375,
        "meta_ra_of_asc_node": 106.5899,
        "meta_arg_of_pericenter": 325.7449,
        "meta_mean_anomaly": 34.2162,
        "meta_ephemeris_type": 0,
        "meta_classification_type": "U",
        "meta_norad_cat_id": 41859,
        "meta_element_set_no": 999,
        "meta_rev_at_epoch": 5601,
        "meta_bstar": 0,
        "meta_mean_motion_dot": 4.7e-07,
        "meta_mean_motion_ddot": 0,
        "tle_line1": "1 41859U 16069A   25334.48023493  .00000047  00000+0  00000+0 0  9998",
        "tle_line2": "2 41859  55.3750 106.5899 0002059 325.7449  34.2162  1.70474248 56019"
      },
      "geometry": {
        "type": "Point",
        "coordinates": [
          70.87768941145129,
          -40.14837400265661
        ]
      }
    }
  ]
}